$$SOE
2460721.500000000, A.D. 2025-Feb-15 00:00:00.0000, -3.420840208910336E+08, 2.891667584579814E+08, 6.539399448523781E+07,
2460728.500000000, A.D. 2025-Feb-22 00:00:00.0000, -3.479329473655101E+08, 2.825424247644684E+08, 6.652155552363248E+07,
2460735.500000000, A.D. 2025-Mar-01 00:00:00.0000, -3.536002490104269E+08, 2.757706433305038E+08, 6.761439336061670E+07,
2460742.500000000, A.D. 2025-Mar-08 00:00:00.0000, -3.590834264991452E+08, 2.688553063554788E+08, 6.867202535193093E+07,
2460749.500000000, A.D. 2025-Mar-15 00:00:00.0000, -3.643800118288792E+08, 2.618003063666219E+08, 6.969397508746755E+07,
2460756.500000000, A.D. 2025-Mar-22 00:00:00.0000, -3.694875682583200E+08, 2.546095390933758E+08, 7.067977219224676E+07,
2460763.500000000, A.D. 2025-Mar-29 00:00:00.0000, -3.744036890048505E+08, 2.472869041486366E+08, 7.162895184286167E+07,
2460770.500000000, A.D. 2025-Apr-05 00:00:00.0000, -3.791259943728489E+08, 2.398363066560149E+08, 7.254105422533396E+07,
2460777.500000000, A.D. 2025-Apr-12 00:00:00.0000, -3.836521292384025E+08, 2.322616599302543E+08, 7.341562411929001E+07,
2460784.500000000, A.D. 2025-Apr-19 00:00:00.0000, -3.879797610756712E+08, 2.245668883342015E+08, 7.425221055325772E+07,
2460791.500000000, A.D. 2025-Apr-26 00:00:00.0000, -3.921065782498909E+08, 2.167559301128252E+08, 7.505036648881587E+07,
2460798.500000000, A.D. 2025-May-03 00:00:00.0000, -3.960302884605200E+08, 2.088327402260797E+08, 7.580964852393131E+07,
2460805.500000000, A.D. 2025-May-10 00:00:00.0000, -3.997486173041416E+08, 2.008012931918777E+08, 7.652961661294332E+07,
2460812.500000000, A.D. 2025-May-17 00:00:00.0000, -4.032593069194506E+08, 1.926655859010695E+08, 7.720983379606539E+07,
2460819.500000000, A.D. 2025-May-24 00:00:00.0000, -4.065601145401098E+08, 1.844296403532628E+08, 7.784986591778354E+07,
2460826.500000000, A.D. 2025-May-31 00:00:00.0000, -4.096488105378693E+08, 1.760975066279930E+08, 7.844928132116184E+07,
2460833.500000000, A.D. 2025-Jun-07 00:00:00.0000, -4.125231763578207E+08, 1.676732672995537E+08, 7.900765065334520E+07,
2460840.500000000, A.D. 2025-Jun-14 00:00:00.0000, -4.151810047131785E+08, 1.591610426326989E+08, 7.952454694511917E+07,
2460847.500000000, A.D. 2025-Jun-21 00:00:00.0000, -4.176201008264651E+08, 1.505649932938262E+08, 7.999954558647451E+07,
2460854.500000000, A.D. 2025-Jun-28 00:00:00.0000, -4.198382815898077E+08, 1.418893223480691E+08, 8.043222405580871E+07,
2460861.500000000, A.D. 2025-Jul-05 00:00:00.0000, -4.218333741627946E+08, 1.331382787021334E+08, 8.082216171823809E+07,
2460868.500000000, A.D. 2025-Jul-12 00:00:00.0000, -4.236032152045336E+08, 1.243161611918993E+08, 8.116893973743545E+07,
2460875.500000000, A.D. 2025-Jul-19 00:00:00.0000, -4.251456505565821E+08, 1.154273227459793E+08, 8.147214103797120E+07,
2460882.500000000, A.D. 2025-Jul-26 00:00:00.0000, -4.264585351725363E+08, 1.064761745749998E+08, 8.173135029554066E+07,
2460889.500000000, A.D. 2025-Aug-02 00:00:00.0000, -4.275397332351577E+08, 9.746719041428183E+07, 8.194615395216060E+07,
2460896.500000000, A.D. 2025-Aug-09 00:00:00.0000, -4.283871184449294E+08, 8.840491081139719E+07, 8.211614025451525E+07,
2460903.500000000, A.D. 2025-Aug-16 00:00:00.0000, -4.289985744114594E+08, 7.929394740172014E+07, 8.224089930498724E+07,
2460910.500000000, A.D. 2025-Aug-23 00:00:00.0000, -4.293719948644035E+08, 7.013898719499853E+07, 8.232002310185879E+07,
2460917.500000000, A.D. 2025-Aug-30 00:00:00.0000, -4.295052833650960E+08, 6.094479759346858E+07, 8.235310559899639E+07,
2460924.500000000, A.D. 2025-Sep-06 00:00:00.0000, -4.293963539484969E+08, 5.171623314779277E+07, 8.233974299919394E+07,
2460931.500000000, A.D. 2025-Sep-13 00:00:00.0000, -4.290431343806801E+08, 4.245824157395212E+07, 8.227953423453797E+07,
2460938.500000000, A.D. 2025-Sep-20 00:00:00.0000, -4.284435687747577E+08, 3.317586739435720E+07, 8.217208120277981E+07,
2460945.500000000, A.D. 2025-Sep-27 00:00:00.0000, -4.275956185208913E+08, 2.387425632250980E+07, 8.201698891995010E+07,
2460952.500000000, A.D. 2025-Oct-04 00:00:00.0000, -4.264972635627905E+08, 1.455866093569146E+07, 8.181386582124114E+07,
2460959.500000000, A.D. 2025-Oct-11 00:00:00.0000, -4.251465044148833E+08, 5.234446697702203E+06, 8.156232417141488E+07,
2460966.500000000, A.D. 2025-Oct-18 00:00:00.0000, -4.235413646594675E+08, -4.092901936136853E+06, 8.126198054099457E+07,
2460973.500000000, A.D. 2025-Oct-25 00:00:00.0000, -4.216798938078793E+08, -1.341777531341539E+07, 8.091245634102747E+07,
2460980.500000000, A.D. 2025-Nov-01 00:00:00.0000, -4.195601705104720E+08, -2.273443225593898E+07, 8.051337841858162E+07,
2460987.500000000, A.D. 2025-Nov-08 00:00:00.0000, -4.171803061059400E+08, -3.203699363314083E+07, 8.006437971157944E+07,
2460994.500000000, A.D. 2025-Nov-15 00:00:00.0000, -4.145384483886724E+08, -4.131943589191742E+07, 7.956509994899584E+07,
2461001.500000000, A.D. 2025-Nov-22 00:00:00.0000, -4.116327852209595E+08, -5.057558432122302E+07, 7.901518638246302E+07,
2461008.500000000, A.D. 2025-Nov-29 00:00:00.0000, -4.084615481772705E+08, -5.979910491718830E+07, 7.841429466226830E+07,
2461015.500000000, A.D. 2025-Dec-06 00:00:00.0000, -4.050230185375023E+08, -6.898349498714124E+07, 7.776209006313062E+07,
2461022.500000000, A.D. 2025-Dec-13 00:00:00.0000, -4.013155352412261E+08, -7.812207586573829E+07, 7.705824875370944E+07,
2461029.500000000, A.D. 2025-Dec-20 00:00:00.0000, -3.973375013584793E+08, -8.720798672175707E+07, 7.630245888291438E+07,
2461036.500000000, A.D. 2025-Dec-27 00:00:00.0000, -3.930873901984689E+08, -9.623417686688806E+07, 7.549442180242644E+07,
2461043.500000000, A.D. 2026-Jan-03 00:00:00.0000, -3.885637525647298E+08, -1.051933971898805E+08, 7.463385351805305E+07,
2461050.500000000, A.D. 2026-Jan-10 00:00:00.0000, -3.837652251023530E+08, -1.140781914078029E+08, 7.372048631479234E+07,
2461057.500000000, A.D. 2026-Jan-17 00:00:00.0000, -3.786905395657635E+08, -1.228808872421307E+08, 7.275407053859417E+07,
2461064.500000000, A.D. 2026-Jan-24 00:00:00.0000, -3.733385329942109E+08, -1.315935875169050E+08, 7.173437654216504E+07,
2461071.500000000, A.D. 2026-Jan-31 00:00:00.0000, -3.677081588406857E+08, -1.402081612115698E+08, 7.066119680543712E+07,
2461078.500000000, A.D. 2026-Feb-07 00:00:00.0000, -3.617984990666343E+08, -1.487162345574205E+08, 6.953434823465760E+07,
2461085.500000000, A.D. 2026-Feb-14 00:00:00.0000, -3.556087770283436E+08, -1.571091822317188E+08, 6.835367463090409E+07,
2461092.500000000, A.D. 2026-Feb-21 00:00:00.0000, -3.491383708512069E+08, -1.653781181192437E+08, 6.711904935583852E+07,
2461099.500000000, A.D. 2026-Feb-28 00:00:00.0000, -3.423868284647341E+08, -1.735138845440149E+08, 6.583037840541802E+07,
2461106.500000000, A.D. 2026-Mar-07 00:00:00.0000, -3.353538864497819E+08, -1.815070419894760E+08, 6.448760393892919E+07,
2461113.500000000, A.D. 2026-Mar-14 00:00:00.0000, -3.280394900224306E+08, -1.893478617218205E+08, 6.309070783774459E+07,
2461120.500000000, A.D. 2026-Mar-21 00:00:00.0000, -3.204438124770457E+08, -1.970263185125131E+08, 6.163971538794294E+07,
2461127.500000000, A.D. 2026-Mar-28 00:00:00.0000, -3.125672762044629E+08, -2.045320825388447E+08, 6.013469937593770E+07,
2461134.500000000, A.D. 2026-Apr-04 00:00:00.0000, -3.044105759966968E+08, -2.118545115541434E+08, 5.857578459433463E+07,
2461141.500000000, A.D. 2026-Apr-11 00:00:00.0000, -2.959747044749652E+08, -2.189826438354311E+08, 5.696315272496630E+07,
2461148.500000000, A.D. 2026-Apr-18 00:00:00.0000, -2.872609795951409E+08, -2.259051920854219E+08, 5.529704760616603E+07,
2461155.500000000, A.D. 2026-Apr-25 00:00:00.0000, -2.782710742974746E+08, -2.326105384673177E+08, 5.357778090320814E+07,
2461162.500000000, A.D. 2026-May-02 00:00:00.0000, -2.690070483778687E+08, -2.390867310209889E+08, 5.180573819728310E+07,
2461169.500000000, A.D. 2026-May-09 00:00:00.0000, -2.594713825562293E+08, -2.453214817753994E+08, 4.998138549494419E+07,
2461176.500000000, A.D. 2026-May-16 00:00:00.0000, -2.496670144532302E+08, -2.513021667010076E+08, 4.810527615136694E+07,
2461183.500000000, A.D. 2026-May-23 00:00:00.0000, -2.395973764984345E+08, -2.570158267985253E+08, 4.617805830048620E+07,
2461190.500000000, A.D. 2026-May-30 00:00:00.0000, -2.292664379037488E+08, -2.624491703629710E+08, 4.420048301987252E+07,
2461197.500000000, A.D. 2026-Jun-06 00:00:00.0000, -2.186787510516353E+08, -2.675885800993371E+08, 4.217341299921677E+07,
2461204.500000000, A.D. 2026-Jun-13 00:00:00.0000, -2.078394986372072E+08, -2.724201253402247E+08, 4.009783139513798E+07,
2461211.500000000, A.D. 2026-Jun-20 00:00:00.0000, -1.967545420337359E+08, -2.769295769322580E+08, 3.797485115291329E+07,
2461218.500000000, A.D. 2026-Jun-27 00:00:00.0000, -1.854304724990281E+08, -2.811024256669448E+08, 3.580572490847851E+07,
2461225.500000000, A.D. 2026-Jul-04 00:00:00.0000, -1.738746650809462E+08, -2.849239056110226E+08, 3.359185538036911E+07,
2461232.500000000, A.D. 2026-Jul-11 00:00:00.0000, -1.620953347537935E+08, -2.883790230930384E+08, 3.133480617622821E+07,
2461239.500000000, A.D. 2026-Jul-18 00:00:00.0000, -1.501015943947883E+08, -2.914525919869053E+08, 2.903631294997239E+07,
2461246.500000000, A.D. 2026-Jul-25 00:00:00.0000, -1.379035141806354E+08, -2.941292759880649E+08, 2.669829483093089E+07,
2461253.500000000, A.D. 2026-Aug-01 00:00:00.0000, -1.255121818429897E+08, -2.963936386479171E+08, 2.432286601672478E+07,
2461260.500000000, A.D. 2026-Aug-08 00:00:00.0000, -1.129397629154621E+08, -2.982302019302124E+08, 2.191234738103479E+07,
2461267.500000000, A.D. 2026-Aug-15 00:00:00.0000, -1.001995597500069E+08, -2.996235135696935E+08, 1.946927794106157E+07,
2461274.500000000, A.D. 2026-Aug-22 00:00:00.0000, -8.730606909387067E+07, -3.005582227277017E+08, 1.699642617089508E+07,
2461281.500000000, A.D. 2026-Aug-29 00:00:00.0000, -7.427503937365712E+07, -3.010191659856727E+08, 1.449680104190119E+07,
2461288.500000000, A.D. 2026-Sep-05 00:00:00.0000, -6.112352422312734E+07, -3.009914671268623E+08, 1.197366210619853E+07,
$$EOE